NORAD_CAT_ID,OBJECT_NAME,OBJECT_TYPE,EPOCH,MEAN_MOTION,ECCENTRICITY,INCLINATION,RA_OF_ASC_NODE,ARG_OF_PERICENTER,MEAN_ANOMALY,BSTAR,MEAN_MOTION_DOT,MEAN_MOTION_DDOT,TLE_LINE0,TLE_LINE1,TLE_LINE2,SEMIMAJOR_AXIS,PERIOD,APOGEE,PERIGEE,DECAYED
53439.0,STARLINK-4519,PAYLOAD,2023-02-03 06:21:18,15.08819736,0.000112,53.2161,138.4025,99.5993,260.5126,-0.00014408,-2.579e-05,0.0,0 STARLINK-4519,1 53439U 22097BD  23034.26480261 -.00002579  00000-0 -14408-3 0  9990,2 53439  53.2161 138.4025 0001120  99.5993 260.5126 15.08819736 27655,6917.942,95.439,540.582,539.033,0.0
53439.0,STARLINK-4519,PAYLOAD,2023-02-04 07:47:28,15.08826023,8.4e-05,53.2171,133.6435,106.7973,253.3111,-2.8604e-05,-7.43e-06,0.0,0 STARLINK-4519,1 53439U 22097BD  23035.32464092 -.00000743  00000-0 -28604-4 0  9997,2 53439  53.2171 133.6435 0000840 106.7973 253.3111 15.08826023 27814,6917.923,95.438,540.369,539.207,0.0
53439.0,STARLINK-4519,PAYLOAD,2023-02-04 14:09:00,15.08848423,0.0001462,53.2177,132.4551,98.8975,261.2182,2.7351e-05,1.47e-06,0.0,0 STARLINK-4519,1 53439U 22097BD  23035.58958646  .00000147  00000-0  27351-4 0  9992,2 53439  53.2177 132.4551 0001462  98.8975 261.2182 15.08848423 27858,6917.855,95.437,540.731,538.708,0.0
53439.0,STARLINK-4519,PAYLOAD,2023-02-04 15:44:23,15.08851929,0.0001326,53.217,132.1569,92.523,267.5914,2.2435e-05,6.9e-07,0.0,0 STARLINK-4519,1 53439U 22097BD  23035.65582513  .00000069  00000-0  22435-4 0  9997,2 53439  53.2170 132.1569 0001326  92.5230 267.5914 15.08851929 28354,6917.844,95.437,540.626,538.792,0.0
53439.0,STARLINK-4519,PAYLOAD,2023-02-05 06:02:53,15.08823835,0.0001016,53.2182,129.4813,98.7811,261.3296,4.8543e-05,4.85e-06,0.0,0 STARLINK-4519,1 53439U 22097BD  23036.25200460  .00000485  00000-0  48543-4 0  9992,2 53439  53.2182 129.4813 0001016  98.7811 261.3296 15.08823835 27952,6917.93,95.439,540.498,539.092,0.0
53439.0,STARLINK-4519,PAYLOAD,2023-02-05 12:24:25,15.08827435,0.0001057,53.2188,128.2916,95.6857,264.4256,6.7696e-05,7.89e-06,0.0,0 STARLINK-4519,1 53439U 22097BD  23036.51696365  .00000789  00000-0  67696-4 0  9991,2 53439  53.2188 128.2916 0001057  95.6857 264.4256 15.08827435 28489,6917.919,95.438,540.515,539.053,0.0
53439.0,STARLINK-4519,PAYLOAD,2023-02-06 05:53:39,15.08841916,0.0001422,53.2169,125.0224,87.1641,272.9514,1.7752e-05,-5e-08,0.0,0 STARLINK-4519,1 53439U 22097BD  23037.24560103 -.00000005  00000-0  17752-4 0  9992,2 53439  53.2169 125.0224 0001422  87.1641 272.9514 15.08841916 28108,6917.875,95.437,540.723,538.756,0.0
53439.0,STARLINK-4519,PAYLOAD,2023-02-06 12:15:11,15.08849543,0.000137,53.217,123.833,86.0621,274.0527,4.9922e-05,5.07e-06,0.0,0 STARLINK-4519,1 53439U 22097BD  23037.51055405  .00000507  00000-0  49922-4 0  9996,2 53439  53.2170 123.8330 0001370  86.0621 274.0527 15.08849543 28631,6917.851,95.437,540.664,538.768,0.0
53439.0,STARLINK-4519,PAYLOAD,2023-02-07 10:30:35,15.08844101,0.0001309,53.2179,119.6705,93.9239,266.1903,0.00010377,1.364e-05,0.0,0 STARLINK-4519,1 53439U 22097BD  23038.43791035  .00001364  00000-0  10377-3 0  9997,2 53439  53.2179 119.6705 0001309  93.9239 266.1903 15.08844101 28773,6917.868,95.437,540.638,538.827,0.0
53439.0,STARLINK-4519,PAYLOAD,2023-02-08 05:35:13,15.08833867,0.000113,53.2195,116.1035,103.4283,256.6835,3.787e-05,3.15e-06,0.0,0 STARLINK-4519,1 53439U 22097BD  23039.23279667  .00000315  00000-0  37870-4 0  9991,2 53439  53.2195 116.1035 0001130 103.4283 256.6835 15.08833867 28402,6917.899,95.438,540.546,538.982,0.0
53439.0,STARLINK-4519,PAYLOAD,2023-02-08 11:56:46,15.08842465,0.0001197,53.2193,114.9138,107.3198,252.7925,-6.9473e-05,-1.393e-05,0.0,0 STARLINK-4519,1 53439U 22097BD  23039.49775575 -.00001393  00000-0 -69473-4 0  9991,2 53439  53.2193 114.9138 0001197 107.3198 252.7925 15.08842465 28930,6917.873,95.437,540.566,538.91,0.0
53439.0,STARLINK-4519,PAYLOAD,2023-02-09 10:12:10,15.08840034,0.0001362,53.2186,110.7492,123.2628,236.8494,-6.6507e-05,-1.346e-05,0.0,0 STARLINK-4519,1 53439U 22097BD  23040.42511708 -.00001346  00000-0 -66507-4 0  9995,2 53439  53.2186 110.7492 0001362 123.2628 236.8494 15.08840034 29078,6917.88,95.438,540.688,538.803,0.0
53439.0,STARLINK-4519,PAYLOAD,2023-02-09 21:19:52,15.08833756,0.0001062,53.2177,108.6661,121.9487,238.1609,8.3364e-06,-1.55e-06,0.0,0 STARLINK-4519,1 53439U 22097BD  23040.88879993 -.00000155  00000-0  83364-5 0  9995,2 53439  53.2177 108.6661 0001062 121.9487 238.1609 15.08833756 28656,6917.899,95.438,540.499,539.03,0.0
53439.0,STARLINK-4519,PAYLOAD,2023-02-10 03:41:25,15.08830534,0.0001074,53.2184,107.4797,117.136,242.9742,-1.1051e-06,-3.05e-06,0.0,0 STARLINK-4519,1 53439U 22097BD  23041.15376371 -.00000305  00000-0 -11051-5 0  9990,2 53439  53.2184 107.4797 0001074 117.1360 242.9742 15.08830534 29182,6917.909,95.438,540.517,539.031,0.0
53439.0,STARLINK-4519,PAYLOAD,2023-02-10 21:10:40,15.08823587,0.000111,53.2175,104.2066,110.1624,249.9488,-9.0722e-06,-4.32e-06,0.0,0 STARLINK-4519,1 53439U 22097BD  23041.88241283 -.00000432  00000-0 -90722-5 0  9996,2 53439  53.2175 104.2066 0001110 110.1624 249.9488 15.08823587 29299,6917.931,95.439,540.563,539.028,0.0
53439.0,STARLINK-4519,PAYLOAD,2023-02-11 21:01:27,15.08835402,0.0001083,53.218,99.7469,101.539,258.5724,5.5127e-05,5.9e-06,0.0,0 STARLINK-4519,1 53439U 22097BD  23042.87601117  .00000590  00000-0  55127-4 0  9994,2 53439  53.2180  99.7469 0001083 101.5390 258.5724 15.08835402 28953,6917.894,95.438,540.509,539.01,0.0
53439.0,STARLINK-4519,PAYLOAD,2023-02-12 06:33:45,15.08845199,0.0001301,53.2161,97.9593,113.6028,246.5101,8.49e-05,1.064e-05,0.0,0 STARLINK-4519,1 53439U 22097BD  23043.27344537  .00001064  00000-0  84900-4 0  9997,2 53439  53.2161  97.9593 0001301 113.6028 246.5101 15.08845199 29013,6917.864,95.437,540.63,538.829,0.0
53439.0,STARLINK-4519,PAYLOAD,2023-02-12 12:55:16,15.08863177,8.09e-05,53.2163,96.7705,103.2822,256.8261,0.00017775,2.544e-05,0.0,0 STARLINK-4519,1 53439U 22097BD  23043.53838816  .00002544  00000-0  17775-3 0  9993,2 53439  53.2163  96.7705 0000809 103.2822 256.8261 15.08863177 29057,6917.81,95.436,540.234,539.115,0.0
53439.0,STARLINK-4519,PAYLOAD,2023-02-12 20:52:13,15.08846992,9.41e-05,53.217,95.2851,121.032,239.0764,-3.8006e-05,-8.93e-06,0.0,0 STARLINK-4519,1 53439U 22097BD  23043.86960278 -.00000893  00000-0 -38006-4 0  9995,2 53439  53.2170  95.2851 0000941 121.0320 239.0764 15.08846992 29102,6917.859,95.437,540.375,539.073,0.0
53439.0,STARLINK-4519,PAYLOAD,2023-02-13 12:46:04,15.08852911,0.0001041,53.2165,92.3112,93.653,266.4582,0.00010037,1.31e-05,0.0,0 STARLINK-4519,1 53439U 22097BD  23044.53199765  .00001310  00000-0  10037-3 0  9991,2 53439  53.2165  92.3112 0001041  93.6530 266.4582 15.08852911 29697,6917.841,95.437,540.426,538.986,0.0
53439.0,STARLINK-4519,PAYLOAD,2023-02-14 03:04:34,15.08835962,0.0001375,53.2157,89.6354,83.3983,276.7166,-0.00011725,-2.153e-05,0.0,0 STARLINK-4519,1 53439U 22097BD  23045.12817693 -.00002153  00000-0 -11725-3 0  9997,2 53439  53.2157  89.6354 0001375  83.3983 276.7166 15.08835962 29298,6917.893,95.438,540.709,538.807,0.0
53439.0,STARLINK-4519,PAYLOAD,2023-02-14 12:36:52,15.08848341,0.0001201,53.2164,87.8514,87.2624,272.8506,-6.6292e-05,-1.343e-05,0.0,0 STARLINK-4519,1 53439U 22097BD  23045.52560693 -.00001343  00000-0 -66292-4 0  9996,2 53439  53.2164  87.8514 0001201  87.2624 272.8506 15.08848341 29848,6917.855,95.437,540.551,538.889,0.0
53439.0,STARLINK-4519,PAYLOAD,2023-02-15 06:06:07,15.08834157,0.0001225,53.2157,84.5809,90.5831,269.5301,-7.1216e-06,-4.01e-06,0.0,0 STARLINK-4519,1 53439U 22097BD  23046.25425324 -.00000401  00000-0 -71216-5 0  9995,2 53439  53.2157  84.5809 0001225  90.5831 269.5301 15.08834157 29468,6917.898,95.438,540.611,538.916,0.0
53439.0,STARLINK-4519,PAYLOAD,2023-02-15 12:27:38,15.08857054,9.71e-05,53.2159,83.3886,108.0591,252.0507,6.04e-05,6.74e-06,0.0,0 STARLINK-4519,1 53439U 22097BD  23046.51919540  .00000674  00000-0  60400-4 0  9994,2 53439  53.2159  83.3886 0000971 108.0591 252.0507 15.08857054 29508,6917.828,95.436,540.365,539.022,0.0
53439.0,STARLINK-4519,PAYLOAD,2023-02-15 18:49:12,15.08841279,0.0001525,53.218,82.1996,89.3878,270.7289,-9.6805e-05,-1.828e-05,0.0,0 STARLINK-4519,1 53439U 22097BD  23046.78416993 -.00001828  00000-0 -96805-4 0  9999,2 53439  53.2180  82.1996 0001525  89.3878 270.7289 15.08841279 29546,6917.876,95.437,540.796,538.687,0.0
53439.0,STARLINK-4519,PAYLOAD,2023-02-16 09:07:39,15.08851484,0.0001102,53.2162,79.5234,90.2189,269.893,0.00019679,2.846e-05,0.0,0 STARLINK-4519,1 53439U 22097BD  23047.38031329  .00002846  00000-0  19679-3 0  9994,2 53439  53.2162  79.5234 0001102  90.2189 269.8930 15.08851484 29639,6917.845,95.437,540.473,538.948,0.0
53439.0,STARLINK-4519,PAYLOAD,2023-02-16 13:53:47,15.08862164,0.0001103,53.2181,78.6301,80.1086,280.0031,0.00022022,3.221e-05,0.0,0 STARLINK-4519,1 53439U 22097BD  23047.57902604  .00003221  00000-0  22022-3 0  9992,2 53439  53.2181  78.6301 0001103  80.1086 280.0031 15.08862164 29667,6917.813,95.436,540.441,538.915,0.0
53439.0,STARLINK-4519,PAYLOAD,2023-02-16 18:40:01,15.08801075,9.34e-05,53.2197,77.7394,105.8507,254.2588,-0.00029771,-5.017e-05,0.0,0 STARLINK-4519,1 53439U 22097BD  23047.77779779 -.00005017  00000-0 -29771-3 0  9994,2 53439  53.2197  77.7394 0000934 105.8507 254.2588 15.08801075 29697,6917.999,95.44,540.511,539.218,0.0
53439.0,STARLINK-4519,PAYLOAD,2023-02-17 02:36:57,15.088127,8.81e-05,53.2173,76.2515,103.1229,256.9861,-0.00032766,-5.495e-05,0.0,0 STARLINK-4519,1 53439U 22097BD  23048.10899919 -.00005495  00000-0 -32766-3 0  9999,2 53439  53.2173  76.2515 0000881 103.1229 256.9861 15.08812700 29749,6917.964,95.439,540.438,539.219,0.0
53439.0,STARLINK-4519,PAYLOAD,2023-02-17 07:23:06,15.08822242,9.71e-05,53.2155,75.3593,113.0639,247.0455,-0.00026462,-4.495e-05,0.0,0 STARLINK-4519,1 53439U 22097BD  23048.30771283 -.00004495  00000-0 -26462-3 0  9999,2 53439  53.2155  75.3593 0000971 113.0639 247.0455 15.08822242 29775,6917.935,95.439,540.471,539.128,0.0
